EYESAT A (AO-27)        
1 22825U 93061C   26133.17764638  .00000044  00000+0  33770-4 0  9996
2 22825  98.6891 200.6008 0008065 195.5210 164.5726 14.30932290701990
ITAMSAT (IO-26)         
1 22826U 93061D   26133.72671226  .00000049  00000+0  35501-4 0  9997
2 22826  98.6839 201.0638 0008951 177.5192 182.6037 14.31358359702389
RADIO ROSTO (RS15)      
1 23439U 94085A   26133.88199592 -.00000046  00000+0 -88028-4 0  9994
2 23439  64.8192 358.6991 0154985  10.1591 350.2406 11.27583701292034
JAS-2 (FO-29)           
1 24278U 96046B   26133.56109654 -.00000014  00000+0  21469-4 0  9990
2 24278  98.5277 347.1695 0349746 186.1353 173.5447 13.53272352468482
FORTE                   
1 24920U 97047A   26133.28017048  .00000090  00000+0  59538-4 0  9991
2 24920  69.9522  92.8647 0023670 320.0625  39.8755 14.27929962493705
TECHSAT 1B (GO-32)      
1 25397U 98043D   26133.50474968  .00000028  00000+0  32496-4 0  9995
2 25397  99.0065 125.3907 0000980  12.1123 348.0079 14.24421378446394
ISS (ZARYA)             
1 25544U 98067A   26133.42450845  .00004975  00000+0  97698-4 0  9994
2 25544  51.6312 112.1826 0007529  54.1813 305.9874 15.49204198566361
IMAGE                   
1 26113U 00017A   26131.51486742  .00000008  00000+0 -20584-1 0  9999
2 26113  94.2002 314.8870 7459903 291.9767   8.1989  1.68665748160880
CLUSTER II-FM7 (SAMBA)  
1 26410U 00041A   26134.67063255  .00003081  00000+0  00000+0 0  9998
2 26410 149.8135  45.0185 9015871 261.7544   0.5684  0.44846614 20168
CLUSTER II-FM8 (TANGO)  
1 26464U 00045B   26134.64554359  .00003165  00000+0  00000+0 0  9991
2 26464 150.0698  45.9942 9019761 262.5889   0.5477  0.44404932 20150
ODIN                    
1 26702U 01007A   26133.11160706  .00068097  00000+0  66050-3 0  9991
2 26702  97.3930 172.0700 0002177 197.0063 163.1124 15.66144874383895
OMNI-M1                 
1 26857U 01026A   26133.32108854 -.00000018  00000+0  00000+0 0  9991
2 26857  44.8436 253.3004 0015406  47.5126 312.6375  3.92401408204203
PCSAT (NO-44)           
1 26931U 01043C   26133.93490749  .00000059  00000+0  52955-4 0  9992
2 26931  67.0511 332.8642 0006272 263.6520  96.3868 14.31942229285543
PROBA-1                 
1 26958U 01049B   26133.95088852  .00001257  00000+0  85165-4 0  9997
2 26958  97.9617 141.2903 0053729 237.9940 121.6059 15.07364333338464
SAUDISAT 1C (SO-50)     
1 27607U 02058C   26133.49414856  .00000609  00000+0  89700-4 0  9995
2 27607  64.5522 236.3170 0075640 268.8072  90.4367 14.82971209259317
CORIOLIS                
1 27640U 03001A   26133.95107894  .00000068  00000+0  52562-4 0  9998
2 27640  98.7136 141.3580 0013117 315.1982  44.8135 14.19935094209369
CUTE-1 (CO-55)          
1 27844U 03031E   26133.96662766  .00000191  00000+0  10178-3 0  9995
2 27844  98.6747 142.9554 0008324 287.2736  72.7532 14.24313628186803
CUBESAT XI-IV (CO-57)   
1 27848U 03031J   26133.51625643  .00000166  00000+0  92066-4 0  9992
2 27848  98.6778 142.2511 0008437 309.7556  50.2879 14.23601563186444
MOZHAETS 4 (RS22)       
1 27939U 03042A   26133.99680154  .00000622  00000+0  10416-3 0  9990
2 27939  98.3472 317.3923 0011841  23.3868  95.8724 14.73405031210510
