OBJECT_NAME,OBJECT_ID,EPOCH,MEAN_MOTION,ECCENTRICITY,INCLINATION,RA_OF_ASC_NODE,ARG_OF_PERICENTER,MEAN_ANOMALY,EPHEMERIS_TYPE,CLASSIFICATION_TYPE,NORAD_CAT_ID,ELEMENT_SET_NO,REV_AT_EPOCH,BSTAR,MEAN_MOTION_DOT,MEAN_MOTION_DDOT
EYESAT A (AO-27),1993-061C,2026-05-13T04:15:48.647232,14.30932290,.00080655,98.6891,200.6008,195.5210,164.5726,0,U,22825,999,70199,.33769687E-4,.44E-6,0
ITAMSAT (IO-26),1993-061D,2026-05-13T17:26:27.939264,14.31358359,.0008951,98.6839,201.0638,177.5192,182.6037,0,U,22826,999,70238,.35500905E-4,.49E-6,0
RADIO ROSTO (RS15),1994-085A,2026-05-13T21:10:04.447488,11.27583701,.01549857,64.8192,358.6991,10.1591,350.2406,0,U,23439,999,29203,-.88027576E-4,-.46E-6,0
JAS-2 (FO-29),1996-046B,2026-05-13T13:27:58.741056,13.53272352,.03497464,98.5277,347.1695,186.1353,173.5447,0,U,24278,999,46848,.2146899E-4,-.14E-6,0
FORTE,1997-047A,2026-05-13T06:43:26.729472,14.27929962,.00236702,69.9522,92.8647,320.0625,39.8755,0,U,24920,999,49370,.59538136E-4,.9E-6,0
TECHSAT 1B (GO-32),1998-043D,2026-05-13T12:06:50.372352,14.24421378,.00009804,99.0065,125.3907,12.1123,348.0079,0,U,25397,999,44639,.32496025E-4,.28E-6,0
ISS (ZARYA),1998-067A,2026-05-13T10:11:17.530080,15.49204198,.00075292,51.6312,112.1826,54.1813,305.9874,0,U,25544,999,56636,.97698487E-4,.4975E-4,0
IMAGE,2000-017A,2026-05-11T12:21:24.545088,1.68665748,.74599038,94.2002,314.8870,291.9767,8.1989,0,U,26113,999,16088,-.20584314E-1,.8E-7,0
CLUSTER II-FM7 (SAMBA),2000-041A,2026-05-14T16:05:42.652320,0.44846614,.90158714,149.8135,45.0185,261.7544,0.5684,0,U,26410,999,2016,0,.3081E-4,0
CLUSTER II-FM8 (TANGO),2000-045B,2026-05-14T15:29:34.966176,0.44404932,.9019761,150.0698,45.9942,262.5889,0.5477,0,U,26464,999,2015,0,.3165E-4,0
ODIN,2001-007A,2026-05-13T02:40:42.849984,15.66144874,.0002177,97.3930,172.0700,197.0063,163.1124,0,U,26702,999,38389,.6605E-3,.68097E-3,0
OMNI-M1,2001-026A,2026-05-13T07:42:22.049856,3.92401408,.00154062,44.8436,253.3004,47.5126,312.6375,0,U,26857,999,20420,0,-.18E-6,0
PCSAT (NO-44),2001-043C,2026-05-13T22:26:16.007136,14.31942229,.00062724,67.0511,332.8642,263.6520,96.3868,0,U,26931,999,28554,.52954611E-4,.59E-6,0
PROBA-1,2001-049B,2026-05-13T22:49:16.768128,15.07364333,.00537294,97.9617,141.2903,237.9940,121.6059,0,U,26958,999,33846,.85164772E-4,.1257E-4,0
SAUDISAT 1C (SO-50),2002-058C,2026-05-13T11:51:34.435584,14.82971209,.00756409,64.5522,236.3170,268.8072,90.4367,0,U,27607,999,25931,.896995E-4,.609E-5,0
CORIOLIS,2003-001A,2026-05-13T22:49:33.220416,14.19935094,.00131174,98.7136,141.3580,315.1982,44.8135,0,U,27640,999,20936,.52561931E-4,.68E-6,0
CUTE-1 (CO-55),2003-031E,2026-05-13T23:11:56.629824,14.24313628,.00083243,98.6747,142.9554,287.2736,72.7532,0,U,27844,999,18680,.1017831E-3,.191E-5,0
CUBESAT XI-IV (CO-57),2003-031J,2026-05-13T12:23:24.555552,14.23601563,.00084376,98.6778,142.2511,309.7556,50.2879,0,U,27848,999,18644,.92066149E-4,.166E-5,0
MOZHAETS 4 (RS22),2003-042A,2026-05-13T23:55:23.653056,14.73405031,.00118411,98.3472,317.3923,23.3868,95.8724,0,U,27939,999,21051,.1041616E-3,.622E-5,0
